NORAD_CAT_ID,OBJECT_NAME,OBJECT_TYPE,EPOCH,MEAN_MOTION,ECCENTRICITY,INCLINATION,RA_OF_ASC_NODE,ARG_OF_PERICENTER,MEAN_ANOMALY,BSTAR,MEAN_MOTION_DOT,MEAN_MOTION_DDOT,TLE_LINE0,TLE_LINE1,TLE_LINE2,SEMIMAJOR_AXIS,PERIOD,APOGEE,PERIGEE,DECAYED
51133.0,STARLINK-3356,PAYLOAD,2023-05-12 15:28:21,15.0884434,9.9e-05,53.2169,252.1492,86.5057,273.6049,-8.1098e-06,-4.17e-06,0.0,0 STARLINK-3356,1 51133U 22005AF  23132.64469140 -.00000417  00000-0 -81098-5 0  9992,2 51133  53.2169 252.1492 0000990  86.5057 273.6049 15.08844340 74048,6917.867,95.437,540.417,539.047,0.0
51133.0,STARLINK-3356,PAYLOAD,2023-05-13 12:08:21,15.08841158,0.0001089,53.217,248.2858,92.8063,267.3053,0.00010564,1.394e-05,0.0,0 STARLINK-3356,1 51133U 22005AF  23133.50581003  .00001394  00000-0  10564-3 0  9992,2 51133  53.2170 248.2858 0001089  92.8063 267.3053 15.08841158 73058,6917.877,95.437,540.495,538.988,0.0
51133.0,STARLINK-3356,PAYLOAD,2023-05-13 15:19:07,15.08845998,0.0001093,53.2171,247.6889,85.9233,274.1884,0.00011822,1.594e-05,0.0,0 STARLINK-3356,1 51133U 22005AF  23133.63828665  .00001594  00000-0  11822-3 0  9994,2 51133  53.2171 247.6889 0001093  85.9233 274.1884 15.08845998 73079,6917.862,95.437,540.483,538.971,0.0
51133.0,STARLINK-3356,PAYLOAD,2023-05-14 00:51:27,15.08840403,0.0001101,53.2177,245.9048,82.2781,277.8336,7.0807e-05,8.39e-06,0.0,0 STARLINK-3356,1 51133U 22005AF  23134.03573103  .00000839  00000-0  70807-4 0  9993,2 51133  53.2177 245.9048 0001101  82.2781 277.8336 15.08840403 74250,6917.879,95.438,540.506,538.982,0.0
51133.0,STARLINK-3356,PAYLOAD,2023-05-14 13:34:32,15.08837389,0.0001188,53.2166,243.5234,84.657,275.4558,-1.5303e-06,-3.12e-06,0.0,0 STARLINK-3356,1 51133U 22005AF  23134.56565608 -.00000312  00000-0 -15303-5 0  9991,2 51133  53.2166 243.5234 0001188  84.6570 275.4558 15.08837389 73210,6917.888,95.438,540.575,538.932,0.0
51133.0,STARLINK-3356,PAYLOAD,2023-05-15 07:03:46,15.08844312,0.000123,53.2177,240.2532,103.6566,256.4563,-1.4125e-05,-5.13e-06,0.0,0 STARLINK-3356,1 51133U 22005AF  23135.29429252 -.00000513  00000-0 -14125-4 0  9999,2 51133  53.2177 240.2532 0001230 103.6566 256.4563 15.08844312 74447,6917.867,95.437,540.583,538.881,0.0
51133.0,STARLINK-3356,PAYLOAD,2023-05-15 13:25:19,15.0884625,0.0001073,53.2164,239.0633,107.6256,252.4853,1.2684e-05,-8.6e-07,0.0,0 STARLINK-3356,1 51133U 22005AF  23135.55924941 -.00000086  00000-0  12684-4 0  9995,2 51133  53.2164 239.0633 0001073 107.6256 252.4853 15.08846250 73367,6917.861,95.437,540.469,538.984,0.0
51133.0,STARLINK-3356,PAYLOAD,2023-05-15 16:36:05,15.08847549,0.0001161,53.2166,238.4684,100.1221,259.9902,4.196e-05,3.8e-06,0.0,0 STARLINK-3356,1 51133U 22005AF  23135.69172774  .00000380  00000-0  41960-4 0  9994,2 51133  53.2166 238.4684 0001161 100.1221 259.9902 15.08847549 73387,6917.857,95.437,540.525,538.919,0.0
51133.0,STARLINK-3356,PAYLOAD,2023-05-16 13:16:06,15.08836758,0.0001366,53.2167,234.6013,69.5474,290.5665,2.8418e-05,1.64e-06,0.0,0 STARLINK-3356,1 51133U 22005AF  23136.55285800  .00000164  00000-0  28418-4 0  9998,2 51133  53.2167 234.6013 0001366  69.5474 290.5665 15.08836758 74633,6917.89,95.438,540.7,538.81,0.0
51133.0,STARLINK-3356,PAYLOAD,2023-05-17 09:56:05,15.0889892,0.0001495,53.2166,230.7354,86.9936,273.1227,-0.00078385,-0.00012761,0.0,0 STARLINK-3356,1 51133U 22005AF  23137.41395771 -.00012761  00000-0 -78385-3 0  9998,2 51133  53.2166 230.7354 0001495  86.9936 273.1227 15.08898920 74760,6917.7,95.434,540.599,538.531,0.0
51133.0,STARLINK-3356,PAYLOAD,2023-05-17 16:17:39,15.08843742,0.0001154,53.2165,229.5458,101.8802,258.232,5.2863e-05,5.54e-06,0.0,0 STARLINK-3356,1 51133U 22005AF  23137.67893125  .00000554  00000-0  52863-4 0  9991,2 51133  53.2165 229.5458 0001154 101.8802 258.2320 15.08843742 74806,6917.869,95.437,540.532,538.936,0.0
51133.0,STARLINK-3356,PAYLOAD,2023-05-18 12:57:39,15.08851123,0.0001161,53.2161,225.6834,95.5096,264.6028,0.00014835,2.075e-05,0.0,0 STARLINK-3356,1 51133U 22005AF  23138.54004102  .00002075  00000-0  14835-3 0  9993,2 51133  53.2161 225.6834 0001161  95.5096 264.6028 15.08851123 74931,6917.846,95.437,540.515,538.908,0.0
51133.0,STARLINK-3356,PAYLOAD,2023-05-18 22:29:59,15.08841915,0.0001298,53.2171,223.8983,85.1531,274.961,6.8229e-05,7.98e-06,0.0,0 STARLINK-3356,1 51133U 22005AF  23138.93748855  .00000798  00000-0  68229-4 0  9993,2 51133  53.2171 223.8983 0001298  85.1531 274.9610 15.08841915 73878,6917.875,95.437,540.637,538.842,0.0
51133.0,STARLINK-3356,PAYLOAD,2023-05-19 09:37:42,15.08826174,0.0001265,53.217,221.8177,94.3501,265.7635,-0.00012494,-2.275e-05,0.0,0 STARLINK-3356,1 51133U 22005AF  23139.40118629 -.00002275  00000-0 -12494-3 0  9992,2 51133  53.2170 221.8177 0001265  94.3501 265.7635 15.08826174 75061,6917.923,95.438,540.663,538.913,0.0
51133.0,STARLINK-3356,PAYLOAD,2023-05-19 15:59:15,15.0882752,0.0001379,53.2176,220.6284,93.8076,266.3074,-0.00010923,-2.025e-05,0.0,0 STARLINK-3356,1 51133U 22005AF  23139.66614688 -.00002025  00000-0 -10923-3 0  9994,2 51133  53.2176 220.6284 0001379  93.8076 266.3074 15.08827520 73989,6917.919,95.438,540.738,538.83,0.0
51133.0,STARLINK-3356,PAYLOAD,2023-05-20 04:42:19,15.08820257,0.000119,53.2179,218.2485,75.9191,284.1934,0.00021537,3.14e-05,0.0,0 STARLINK-3356,1 51133U 22005AF  23140.19605541  .00003140  00000-0  21537-3 0  9992,2 51133  53.2179 218.2485 0001190  75.9191 284.1934 15.08820257 75185,6917.941,95.439,540.629,538.983,0.0
51133.0,STARLINK-3356,PAYLOAD,2023-05-20 09:28:28,15.08827409,0.00011,53.2165,217.3574,77.9805,282.1311,0.00027611,4.108e-05,0.0,0 STARLINK-3356,1 51133U 22005AF  23140.39477198  .00004108  00000-0  27611-3 0  9993,2 51133  53.2165 217.3574 0001100  77.9805 282.1311 15.08827409 75211,6917.919,95.438,540.545,539.023,0.0
51133.0,STARLINK-3356,PAYLOAD,2023-05-20 12:39:14,15.08834204,0.0001218,53.2166,216.7625,77.326,282.7868,0.0003344,5.037e-05,0.0,0 STARLINK-3356,1 51133U 22005AF  23140.52724978  .00005037  00000-0  33440-3 0  9998,2 51133  53.2166 216.7625 0001218  77.3260 282.7868 15.08834204 74113,6917.898,95.438,540.606,538.921,0.0
51133.0,STARLINK-3356,PAYLOAD,2023-05-21 10:54:38,15.08843306,0.0001233,53.215,212.6001,78.1174,281.9956,0.00031744,4.768e-05,0.0,0 STARLINK-3356,1 51133U 22005AF  23141.45461738  .00004768  00000-0  31744-3 0  9998,2 51133  53.2150 212.6001 0001233  78.1174 281.9956 15.08843306 74256,6917.87,95.437,540.588,538.882,0.0
51133.0,STARLINK-3356,PAYLOAD,2023-05-21 12:30:01,15.08846286,0.0001234,53.2149,212.3029,78.2994,281.8136,0.00030905,4.635e-05,0.0,0 STARLINK-3356,1 51133U 22005AF  23141.52085591  .00004635  00000-0  30905-3 0  9996,2 51133  53.2149 212.3029 0001234  78.2994 281.8136 15.08846286 75387,6917.861,95.437,540.58,538.873,0.0
51133.0,STARLINK-3356,PAYLOAD,2023-05-21 22:02:20,15.08841505,0.0001336,53.2147,210.5193,76.4885,283.6256,0.00010007,1.305e-05,0.0,0 STARLINK-3356,1 51133U 22005AF  23141.91829712  .00001305  00000-0  10007-3 0  9992,2 51133  53.2147 210.5193 0001336  76.4885 283.6256 15.08841505 74324,6917.876,95.437,540.665,538.817,0.0
51133.0,STARLINK-3356,PAYLOAD,2023-05-22 04:23:53,15.08836277,0.0001153,53.2153,209.3308,73.7719,286.34,4.8873e-05,4.9e-06,0.0,0 STARLINK-3356,1 51133U 22005AF  23142.18325991  .00000490  00000-0  48873-4 0  9999,2 51133  53.2153 209.3308 0001153  73.7719 286.3400 15.08836277 75487,6917.892,95.438,540.554,538.959,0.0
51133.0,STARLINK-3356,PAYLOAD,2023-05-22 10:45:26,15.08839594,0.000132,53.2155,208.1414,74.4903,285.6234,5.4268e-05,5.76e-06,0.0,0 STARLINK-3356,1 51133U 22005AF  23142.44821994  .00000576  00000-0  54268-4 0  9992,2 51133  53.2155 208.1414 0001320  74.4903 285.6234 15.08839594 74406,6917.882,95.438,540.66,538.833,0.0
51133.0,STARLINK-3356,PAYLOAD,2023-05-23 10:36:13,15.08840372,0.0001187,53.216,203.6781,94.393,265.7198,4.7788e-05,4.73e-06,0.0,0 STARLINK-3356,1 51133U 22005AF  23143.44182010  .00000473  00000-0  47788-4 0  9997,2 51133  53.2160 203.6781 0001187  94.3930 265.7198 15.08840372 75675,6917.879,95.438,540.565,538.923,0.0
51133.0,STARLINK-3356,PAYLOAD,2023-05-24 13:37:46,15.08838844,0.000122,53.2162,198.6228,97.1505,262.9626,0.00010888,1.445e-05,0.0,0 STARLINK-3356,1 51133U 22005AF  23144.56790200  .00001445  00000-0  10888-3 0  9997,2 51133  53.2162 198.6228 0001220  97.1505 262.9626 15.08838844 75848,6917.884,95.438,540.593,538.905,0.0
51133.0,STARLINK-3356,PAYLOAD,2023-05-26 02:11:39,15.08835741,0.000125,53.216,191.7819,92.7884,267.3251,4.4295e-05,4.17e-06,0.0,0 STARLINK-3356,1 51133U 22005AF  23146.09142807  .00000417  00000-0  44295-4 0  9999,2 51133  53.2160 191.7819 0001250  92.7884 267.3251 15.08835741 76072,6917.893,95.438,540.623,538.894,0.0
51133.0,STARLINK-3356,PAYLOAD,2023-05-26 13:19:21,15.08836473,0.0001198,53.2157,189.7009,95.1049,265.008,3.1239e-05,2.09e-06,0.0,0 STARLINK-3356,1 51133U 22005AF  23146.55510844  .00000209  00000-0  31239-4 0  9993,2 51133  53.2157 189.7009 0001198  95.1049 265.0080 15.08836473 75029,6917.891,95.438,540.585,538.927,0.0
51133.0,STARLINK-3356,PAYLOAD,2023-05-27 08:23:59,15.08836985,0.0001128,53.2157,186.1333,97.8288,262.2832,2.5158e-05,1.13e-06,0.0,0 STARLINK-3356,1 51133U 22005AF  23147.34998920  .00000113  00000-0  25158-4 0  9993,2 51133  53.2157 186.1333 0001128  97.8288 262.2832 15.08836985 76266,6917.89,95.438,540.535,538.974,0.0
51133.0,STARLINK-3356,PAYLOAD,2023-05-27 19:31:40,15.08838165,0.0001054,53.2154,184.0516,84.6901,275.4212,5.405e-05,5.72e-06,0.0,0 STARLINK-3356,1 51133U 22005AF  23147.81366853  .00000572  00000-0  54050-4 0  9991,2 51133  53.2154 184.0516 0001054  84.6901 275.4212 15.08838165 75211,6917.886,95.438,540.48,539.022,0.0
51133.0,STARLINK-3356,PAYLOAD,2023-05-28 06:39:22,15.08838835,0.0001022,53.2153,181.9699,84.4326,275.6782,5.6972e-05,6.19e-06,0.0,0 STARLINK-3356,1 51133U 22005AF  23148.27734883  .00000619  00000-0  56972-4 0  9991,2 51133  53.2153 181.9699 0001022  84.4326 275.6782 15.08838835 75287,6917.884,95.438,540.456,539.042,0.0
